[{"OBJECT_NAME":"JINJUSAT-1B","OBJECT_ID":"2025-052A","EPOCH":"2026-03-09T15:55:38.242848","MEAN_MOTION":15.30194857,"ECCENTRICITY":0.00055504,"INCLINATION":97.4113,"RA_OF_ASC_NODE":325.4613,"ARG_OF_PERICENTER":82.193,"MEAN_ANOMALY":277.9941,"EPHEMERIS_TYPE":0,"CLASSIFICATION_TYPE":"U","NORAD_CAT_ID":63210,"ELEMENT_SET_NO":999,"REV_AT_EPOCH":5486,"BSTAR":0.00068430401,"MEAN_MOTION_DOT":0.00019955,"MEAN_MOTION_DDOT":0},{"OBJECT_NAME":"STARLINK-34588","OBJECT_ID":"2025-144F","EPOCH":"2026-03-09T18:38:49.778592","MEAN_MOTION":15.30199915,"ECCENTRICITY":0.00012163,"INCLINATION":53.158,"RA_OF_ASC_NODE":180.7507,"ARG_OF_PERICENTER":82.8633,"MEAN_ANOMALY":277.2506,"EPHEMERIS_TYPE":0,"CLASSIFICATION_TYPE":"U","NORAD_CAT_ID":64729,"ELEMENT_SET_NO":999,"REV_AT_EPOCH":3972,"BSTAR":0.00071808352,"MEAN_MOTION_DOT":0.00020968,"MEAN_MOTION_DDOT":0}]
